[{"OBJECT_NAME":"BANDWAGON-4 OBJECT N","OBJECT_ID":"2025-248N","EPOCH":"2026-03-09T00:44:39.250176","MEAN_MOTION":15.24369076,"ECCENTRICITY":0.00135211,"INCLINATION":45.4084,"RA_OF_ASC_NODE":294.9612,"ARG_OF_PERICENTER":206.7837,"MEAN_ANOMALY":153.2354,"EPHEMERIS_TYPE":0,"CLASSIFICATION_TYPE":"U","NORAD_CAT_ID":66305,"ELEMENT_SET_NO":999,"REV_AT_EPOCH":1717,"BSTAR":0.00097341364,"MEAN_MOTION_DOT":0.00024115,"MEAN_MOTION_DDOT":0},{"OBJECT_NAME":"STARLINK-36431","OBJECT_ID":"2026-005T","EPOCH":"2026-03-09T22:00:01.999584","MEAN_MOTION":15.27537551,"ECCENTRICITY":0.00012342,"INCLINATION":42.9991,"RA_OF_ASC_NODE":237.0254,"ARG_OF_PERICENTER":268.8178,"MEAN_ANOMALY":229.7577,"EPHEMERIS_TYPE":0,"CLASSIFICATION_TYPE":"U","NORAD_CAT_ID":67421,"ELEMENT_SET_NO":999,"REV_AT_EPOCH":584,"BSTAR":0.0028284612,"MEAN_MOTION_DOT":0.00078299,"MEAN_MOTION_DDOT":0}]
